OBJECT C                
1 57582U 23117C   24148.18856502  .00006310  00000+0  33387-3 0  9991
2 57582  97.4866 220.5333 0010852  16.1490 344.0086 15.15749073 44009
